[{"OBJECT_NAME":"STARLINK-3210","OBJECT_ID":"2021-115AH","EPOCH":"2026-03-09T12:52:13.484352","MEAN_MOTION":15.08824357,"ECCENTRICITY":0.00012881,"INCLINATION":53.2171,"RA_OF_ASC_NODE":149.855,"ARG_OF_PERICENTER":89.9257,"MEAN_ANOMALY":270.1883,"EPHEMERIS_TYPE":0,"CLASSIFICATION_TYPE":"U","NORAD_CAT_ID":49755,"ELEMENT_SET_NO":999,"REV_AT_EPOCH":23551,"BSTAR":-0.0001427929,"MEAN_MOTION_DOT":-2.559e-5,"MEAN_MOTION_DDOT":0},{"OBJECT_NAME":"CZ-2D DEB","OBJECT_ID":"2010-027G","EPOCH":"2026-03-07T07:54:25.300800","MEAN_MOTION":15.18267572,"ECCENTRICITY":0.0071051,"INCLINATION":97.484,"RA_OF_ASC_NODE":105.3106,"ARG_OF_PERICENTER":258.5099,"MEAN_ANOMALY":100.8151,"EPHEMERIS_TYPE":0,"CLASSIFICATION_TYPE":"U","NORAD_CAT_ID":38302,"ELEMENT_SET_NO":999,"REV_AT_EPOCH":83107,"BSTAR":0.0021438,"MEAN_MOTION_DOT":0.00047105,"MEAN_MOTION_DDOT":0}]
